STARLINK-4448           
1 53504U 22099AR  22245.58334491 -.01206939  00000+0 -19687-1 0  9994
2 53504  97.6554   4.6874 0001697  87.0638  30.7862 15.55548721  1302
STARLINK-4446           
1 53505U 22099AS  22245.58334491 -.01207062  00000+0 -19663-1 0  9997
2 53505  97.6554   4.6853 0001703  89.0240  32.5319 15.55584685  1305
STARLINK-4437           
1 53506U 22099AT  22245.58334491 -.01209441  00000+0 -19714-1 0  9998
2 53506  97.6553   4.6862 0001923  63.5618  56.5115 15.55571791  1309
STARLINK-4444           
1 53507U 22099AU  22245.58334491 -.01207192  00000+0 -19660-1 0  9990
2 53507  97.6554   4.6846 0001720  82.4870  39.8098 15.55591908  1304
STARLINK-4443           
1 53508U 22099AV  22245.58334491 -.01207173  00000+0 -19670-1 0  9991
2 53508  97.6554   4.6858 0001738  77.7859  43.0289 15.55577520  1304
STARLINK-4402           
1 53509U 22099AW  22245.58334491 -.01212171  00000+0 -19736-1 0  9999
2 53509  97.6553   4.6841 0001909  57.8197  65.9576 15.55609593  1308
STARLINK-4441           
1 53510U 22099AX  22245.58334491 -.01207265  00000+0 -19656-1 0  9990
2 53510  97.6554   4.6838 0001731  80.1959  42.8418 15.55599100  1306
FALCON 9 DEB            
1 53511U 22099AY  22245.29778146  .00139099  93702-5  45044-3 0  9993
2 53511  97.6762   4.9674 0009344 209.2623 150.8127 15.90771461  3242
FALCON 9 DEB            
1 53512U 22099AZ  22245.60596166  .00177476  13893-4  55280-3 0  9995
2 53512  97.6718   5.3261 0006923 210.1859 149.9016 15.91546700  3291
FALCON 9 DEB            
1 53513U 22099BA  22245.27586222  .00172851  13499-4  49805-3 0  9991
2 53513  97.6721   4.9817 0009865 191.3686 168.7366 15.93010491  3241
FALCON 9 DEB            
1 53514U 22099BB  22245.33521343  .00166021  12660-4  47312-3 0  9994
2 53514  97.6719   5.0542 0009175 177.5708 182.5612 15.93237238  3250
2022-100A               
1 53522U 22100A   22245.80949847  .00006183  00000+0  25893-3 0  9993
2 53522  35.0011 119.2345 0006989  21.7209 338.3847 15.22857858  2152
2022-100B               
1 53523U 22100B   22245.34594829  .00009960  00000+0  40733-3 0  9995
2 53523  35.0018 122.0794 0008032  22.1970 337.9103 15.23553856  2085
2022-100C               
1 53524U 22100C   22245.60956797  .00006441  00000+0  26944-3 0  9990
2 53524  34.9999 120.4434 0005639  19.7835 340.3101 15.22893772  2075
2022-100D               
1 53525U 22100D   22245.60507012  .00010903  00000+0  44114-3 0  9990
2 53525  35.0038 120.4051 0008486  33.5400 326.5857 15.23897888  2079
2022-100E               
1 53526U 22100E   22245.61162307  .00004144  00000+0  17466-3 0  9996
2 53526  35.0014 120.4605 0005544  29.0934 331.0093 15.22763567  2071
STARLINK-4511           
1 53527U 22101A   22245.58334491  .00040807  00000+0  29357-3 0  9997
2 53527  53.2161  86.4925 0001105  66.0997  94.3911 15.73215059  1309
STARLINK-4503           
1 53528U 22101B   22245.58334491 -.00051583  00000+0 -36459-3 0  9994
2 53528  53.2166  86.4956 0001284  66.3999  93.4929 15.73249579  1305
STARLINK-4478           
1 53529U 22101C   22245.58334491  .00033706  00000+0  24358-3 0  9995
2 53529  53.2161  86.4912 0000946  62.0814  98.9621 15.73202694  1302
STARLINK-4482           
1 53530U 22101D   22245.58334491  .00054597  00000+0  39102-3 0  9991
2 53530  53.2163  86.4880 0001357  69.3945  92.9310 15.73192491  1304
STARLINK-4487           
1 53531U 22101E   22245.58334491  .00042345  00000+0  30456-3 0  9993
2 53531  53.2163  86.4904 0001227  63.6512  98.0784 15.73203789  1300
STARLINK-4483           
1 53532U 22101F   22245.58334491  .00031218  00000+0  22606-3 0  9999
2 53532  53.2170  86.4904 0001037  58.8354 104.0913 15.73195751  1309
STARLINK-4493           
1 53533U 22101G   22245.58334491  .00041998  00000+0  30223-3 0  9990
2 53533  53.2158  86.4857 0001413  71.6807  91.7328 15.73194194  1309
STARLINK-4488           
1 53534U 22101H   22245.58334491  .00037290  00000+0  26914-3 0  9993
2 53534  53.2164  86.4833 0001132  60.6279 105.2426 15.73181834  1307
STARLINK-4138           
1 53535U 22101J   22245.58334491  .00001445  00000+0  14708-4 0  9996
2 53535  53.2177  86.4804 0001016  64.0400 100.5849 15.73203841  1305
STARLINK-4053           
1 53536U 22101K   22245.58334491 -.00012959  00000+0 -87896-4 0  9999
2 53536  53.2165  86.4810 0001105  69.2151  97.8346 15.73243831  1302
STARLINK-4120           
1 53537U 22101L   22245.58334491 -.00032397  00000+0 -22710-3 0  9991
2 53537  53.2161  86.4856 0001015  62.2418 101.8570 15.73221379  1306
STARLINK-4118           
1 53538U 22101M   22245.58334491  .00040632  00000+0  29231-3 0  9996
2 53538  53.2161  86.4791 0001280  68.7676  98.7551 15.73216950  1308
STARLINK-4123           
1 53539U 22101N   22245.58334491  .00038157  00000+0  27519-3 0  9993
2 53539  53.2160  86.4832 0001014  56.0922 109.1962 15.73188313  1307
STARLINK-4486           
1 53540U 22101P   22245.58334491  .00037496  00000+0  27038-3 0  9996
2 53540  53.2166  86.4782 0001516  72.0195  96.7932 15.73200004  1306
STARLINK-4485           
1 53541U 22101Q   22245.58334491 -.00024272  00000+0 -16870-3 0  9999
2 53541  53.2163  86.4818 0001060  67.0931  99.3782 15.73244647  1303
STARLINK-4489           
1 53542U 22101R   22245.58334491 -.00004277  00000+0 -26019-4 0  9990
2 53542  53.2164  86.4751 0001292  62.2494 107.7888 15.73242403  1308
STARLINK-4297           
1 53543U 22101S   22245.58334491  .00031457  00000+0  22776-3 0  9994
2 53543  53.2164  86.4782 0001120  66.4244 101.8654 15.73194826  1303
STARLINK-4303           
1 53544U 22101T   22245.58334491  .00024139  00000+0  17584-3 0  9995
2 53544  53.2165  86.4729 0001049  60.7722 110.4923 15.73210151  1309
STARLINK-4475           
1 53545U 22101U   22245.58334491  .00006576  00000+0  51211-4 0  9997
2 53545  53.2165  86.4764 0001078  76.5166  92.8792 15.73208338  1309
STARLINK-4477           
1 53546U 22101V   22245.58334491 -.01333305  00000+0 -74905-2 0  9997
2 53546  53.2170  85.4958 0001638 340.0461 311.0263 15.81469374  1306
STARLINK-4474           
1 53547U 22101W   22245.58334491  .00127591  00000+0  89752-3 0  9990
2 53547  53.2166  86.4745 0001226  69.6768 100.9562 15.73258691  1300
STARLINK-4513           
1 53548U 22101X   22245.58334491 -.00022286  00000+0 -15466-3 0  9999
2 53548  53.2166  86.4685 0001352  68.3499 105.2551 15.73219152  1306
STARLINK-4516           
1 53549U 22101Y   22245.58334491  .00042154  00000+0  30320-3 0  9990
2 53549  53.2158  86.4694 0001140  65.8225 106.0518 15.73204583  1306
STARLINK-4518           
1 53550U 22101Z   22245.58334491 -.00007821  00000+0 -51272-4 0  9996
2 53550  53.2162  86.4661 0001092  61.4996 112.7036 15.73239823  1304
STARLINK-4514           
1 53551U 22101AA  22245.58334491 -.00006063  00000+0 -38727-4 0  9994
2 53551  53.2166  86.4708 0001138  69.2726 103.1309 15.73252204  1304
STARLINK-4495           
1 53552U 22101AB  22245.58334491  .00020984  00000+0  15354-3 0  9991
2 53552  53.2166  86.4641 0001033  59.5502 116.4136 15.73202095  1307
STARLINK-4501           
1 53553U 22101AC  22245.58334491  .00037594  00000+0  27058-3 0  9991
2 53553  53.2164  86.4656 0001294  66.0748 108.6255 15.73242858  1302
STARLINK-4506           
1 53554U 22101AD  22245.58334491  .00031418  00000+0  22746-3 0  9990
2 53554  53.2161  86.4602 0000924  74.9378 102.3080 15.73196928  1300
STARLINK-4504           
1 53555U 22101AE  22245.58334491  .00042245  00000+0  30375-3 0  9998
2 53555  53.2160  86.4629 0001059  66.4474 108.8448 15.73211726  1305
STARLINK-4505           
1 53556U 22101AF  22245.58334491 -.00054973  00000+0 -38977-3 0  9998
2 53556  53.2162  86.4588 0001341  65.6059 112.6152 15.73203296  1304
STARLINK-4502           
1 53557U 22101AG  22245.58334491  .00040534  00000+0  29169-3 0  9998
2 53557  53.2162  86.4619 0001196  69.8817 106.5978 15.73211184  1309
STARLINK-4494           
1 53558U 22101AH  22245.58334491 -.00053131  00000+0 -37583-3 0  9997
2 53558  53.2165  86.4571 0001424  74.8117 104.7448 15.73243025  1304
STARLINK-4508           
1 53559U 22101AJ  22245.58334491  .00038960  00000+0  28085-3 0  9996
2 53559  53.2164  86.4602 0001138  66.6922 110.9699 15.73189513  1302
STARLINK-4564           
1 53560U 22101AK  22245.58334491 -.00009247  00000+0 -61524-4 0  9992
2 53560  53.2161  86.4534 0001165  66.4686 114.3210 15.73207118  1309
STARLINK-4563           
1 53561U 22101AL  22245.58334491  .00001459  00000+0  14811-4 0  9995
2 53561  53.2177  86.4523 0001425  67.3322 111.5992 15.73203894  1304
STARLINK-4565           
1 53562U 22101AM  22245.58334491 -.00024772  00000+0 -17235-3 0  9993
2 53562  53.2161  86.4512 0001399  65.8879 116.0188 15.73233001  1306
STARLINK-4561           
1 53563U 22101AN  22245.58334491 -.00016913  00000+0 -11623-3 0  9997
2 53563  53.2162  86.4549 0001181  63.5413 116.6183 15.73219787  1302
STARLINK-4577           
1 53564U 22101AP  22245.58334491  .00039414  00000+0  28402-3 0  9990
2 53564  53.2159  86.4478 0000904  68.7030 114.4337 15.73192453  1301
STARLINK-4575           
1 53565U 22101AQ  22245.58334491 -.00073646  00000+0 -52412-3 0  9996
2 53565  53.2162  86.4519 0000790  66.4127 114.9000 15.73236577  1305
STARLINK-4576           
1 53566U 22101AR  22245.58334491 -.00002289  00000+0 -11876-4 0  9992
2 53566  53.2162  86.4470 0001135  62.2769 121.9713 15.73237444  1305
STARLINK-4585           
1 53567U 22101AS  22245.58334491 -.00012843  00000+0 -86977-4 0  9994
2 53567  53.2163  86.4508 0001093  63.6681 118.7027 15.73267176  1307
STARLINK-4583           
1 53568U 22101AT  22245.58334491 -.00016568  00000+0 -11382-3 0  9990
2 53568  53.2161  86.4429 0001288  56.0718 130.0182 15.73208276  1306
STARLINK-4582           
1 53569U 22101AU  22245.58334491  .00001418  00000+0  14517-4 0  9991
2 53569  53.2177  86.4428 0001275  63.7186 119.9816 15.73203928  1302
